EUTELSAT 21B            
1 38992U 12062B   25318.74294812  .00000134  00000+0  00000+0 0  9994
2 38992   0.0715   8.5654 0003215 238.9077  95.6885  1.00272739 47677
EUTELSAT 70B            
1 39020U 12069A   25318.83278884 -.00000040  00000+0  00000+0 0  9992
2 39020   0.0647 349.4772 0004412 238.8801 196.1505  1.00271052 47365
EUTELSAT 117 WEST A     
1 39122U 13012A   25318.57282046 -.00000010  00000+0  00000+0 0  9997
2 39122   0.0483  81.0947 0003009 158.5794 263.6754  1.00271944 46285
EUTELSAT 7B             
1 39163U 13022A   25318.74000145  .00000052  00000+0  00000+0 0  9995
2 39163   0.0810  28.6609 0003477 280.6946  18.1431  1.00273207 45807
EXPRESS-AT1             
1 39612U 14010A   25318.82106561  .00000082  00000+0  00000+0 0  9993
2 39612   0.0143 269.4855 0000306 265.4832 230.8004  1.00273058 42660
EXPRESS-AT2             
1 39613U 14010B   25318.88100146 -.00000276  00000+0  00000+0 0  9999
2 39613   0.0195 274.4411 0001308  13.6019 223.2127  1.00272580 42352
EUTELSAT 3B             
1 39773U 14030A   25318.73922145  .00000024  00000+0  00000+0 0  9993
2 39773   0.0665   5.8404 0004695 213.1107 104.3633  1.00271255 41916
EUTELSAT 115 WEST B     
1 40425U 15010B   25316.50408995 -.00000029  00000+0  00000+0 0  9999
2 40425   0.0114 134.6964 0000330 322.1287  21.6436  1.00272057 39229
